NORAD_CAT_ID,OBJECT_NAME,OBJECT_TYPE,EPOCH,MEAN_MOTION,ECCENTRICITY,INCLINATION,RA_OF_ASC_NODE,ARG_OF_PERICENTER,MEAN_ANOMALY,BSTAR,MEAN_MOTION_DOT,MEAN_MOTION_DDOT,TLE_LINE0,TLE_LINE1,TLE_LINE2,SEMIMAJOR_AXIS,PERIOD,APOGEE,PERIGEE,DECAYED
49736.0,STARLINK-3148,PAYLOAD,2024-02-21 19:22:27,15.08842415,0.0001211,53.216,261.8898,82.0486,278.0644,1.9445e-05,2.2e-07,0.0,0 STARLINK-3148,1 49736U 21115N   24052.80726092  .00000022  00000-0  19445-4 0  9997,2 49736  53.2160 261.8898 0001211  82.0486 278.0644 15.08842415123895,6917.873,95.437,540.576,538.9,0.0
49736.0,STARLINK-3148,PAYLOAD,2024-02-21 20:57:50,15.08844911,0.0001225,53.2161,261.5936,83.4413,276.6718,4.2344e-05,3.86e-06,0.0,0 STARLINK-3148,1 49736U 21115N   24052.87349879  .00000386  00000-0  42344-4 0  9995,2 49736  53.2161 261.5936 0001225  83.4413 276.6718 15.08844911122793,6917.865,95.437,540.578,538.883,0.0
49736.0,STARLINK-3148,PAYLOAD,2024-02-22 06:30:09,15.08841573,0.00012,53.2156,259.8095,82.6625,277.4503,2.3943e-05,9.3e-07,0.0,0 STARLINK-3148,1 49736U 21115N   24053.27094143  .00000093  00000-0  23943-4 0  9990,2 49736  53.2156 259.8095 0001200  82.6625 277.4503 15.08841573122851,6917.876,95.437,540.571,538.91,0.0
49736.0,STARLINK-3148,PAYLOAD,2024-02-22 19:13:15,15.08833002,0.0001237,53.2157,257.4306,77.9156,282.1975,9.7905e-05,1.27e-05,0.0,0 STARLINK-3148,1 49736U 21115N   24053.80086858  .00001270  00000-0  97905-4 0  9990,2 49736  53.2157 257.4306 0001237  77.9156 282.1975 15.08833002124044,6917.902,95.438,540.623,538.911,0.0
49736.0,STARLINK-3148,PAYLOAD,2024-02-22 20:48:37,15.0883559,0.0001205,53.2157,257.1336,82.2529,277.86,0.0001172,1.578e-05,0.0,0 STARLINK-3148,1 49736U 21115N   24053.86710641  .00001578  00000-0  11720-3 0  9991,2 49736  53.2157 257.1336 0001205  82.2529 277.8600 15.08835590122949,6917.894,95.438,540.592,538.925,0.0
49736.0,STARLINK-3148,PAYLOAD,2024-02-23 06:20:56,15.08837549,0.0001217,53.2156,255.3494,80.5812,279.5318,0.00011116,1.482e-05,0.0,0 STARLINK-3148,1 49736U 21115N   24054.26454667  .00001482  00000-0  11116-3 0  9992,2 49736  53.2156 255.3494 0001217  80.5812 279.5318 15.08837549123001,6917.888,95.438,540.595,538.911,0.0
49736.0,STARLINK-3148,PAYLOAD,2024-02-23 20:39:25,15.08838779,0.0001369,53.217,252.6747,85.5657,274.5491,3.2829e-05,2.35e-06,0.0,0 STARLINK-3148,1 49736U 21115N   24054.86070943  .00000235  00000-0  32829-4 0  9999,2 49736  53.2170 252.6747 0001369  85.5657 274.5491 15.08838779124204,6917.884,95.438,540.696,538.802,0.0
49736.0,STARLINK-3148,PAYLOAD,2024-02-23 22:14:48,15.08840106,0.000139,53.2171,252.3775,86.0143,274.1008,4.3117e-05,3.98e-06,0.0,0 STARLINK-3148,1 49736U 21115N   24054.92694810  .00000398  00000-0  43117-4 0  9993,2 49736  53.2171 252.3775 0001390  86.0143 274.1008 15.08840106123108,6917.88,95.438,540.707,538.783,0.0
49736.0,STARLINK-3148,PAYLOAD,2024-02-24 12:33:16,15.0883556,0.0001396,53.2167,249.7006,83.1389,276.9762,3.9898e-05,3.47e-06,0.0,0 STARLINK-3148,1 49736U 21115N   24055.52311272  .00000347  00000-0  39898-4 0  9993,2 49736  53.2167 249.7006 0001396  83.1389 276.9762 15.08835560123190,6917.894,95.438,540.725,538.793,0.0
49736.0,STARLINK-3148,PAYLOAD,2024-02-25 12:24:03,15.08842551,0.000141,53.2166,245.2394,82.8127,277.3025,0.00011535,1.548e-05,0.0,0 STARLINK-3148,1 49736U 21115N   24056.51670700  .00001548  00000-0  11535-3 0  9998,2 49736  53.2166 245.2394 0001410  82.8127 277.3025 15.08842551124458,6917.873,95.437,540.713,538.762,0.0
49736.0,STARLINK-3148,PAYLOAD,2024-02-25 18:45:35,15.08847577,0.0001285,53.2156,244.0501,83.2434,276.8704,0.00016061,2.27e-05,0.0,0 STARLINK-3148,1 49736U 21115N   24056.78166202  .00002270  00000-0  16061-3 0  9996,2 49736  53.2156 244.0501 0001285  83.2434 276.8704 15.08847577123382,6917.857,95.437,540.611,538.833,0.0
49736.0,STARLINK-3148,PAYLOAD,2024-02-26 18:36:23,15.08842189,0.0001192,53.2152,239.5902,77.6594,282.4531,6.759e-05,7.88e-06,0.0,0 STARLINK-3148,1 49736U 21115N   24057.77526748  .00000788  00000-0  67590-4 0  9997,2 49736  53.2152 239.5902 0001192  77.6594 282.4531 15.08842189124648,6917.874,95.437,540.563,538.914,0.0
49736.0,STARLINK-3148,PAYLOAD,2024-02-26 21:47:09,15.08844267,0.0001201,53.2151,238.9946,80.3201,279.7927,7.8903e-05,9.68e-06,0.0,0 STARLINK-3148,1 49736U 21115N   24057.90774547  .00000968  00000-0  78903-4 0  9994,2 49736  53.2151 238.9946 0001201  80.3201 279.7927 15.08844267123551,6917.867,95.437,540.563,538.902,0.0
49736.0,STARLINK-3148,PAYLOAD,2024-02-27 12:05:38,15.08833252,0.0001213,53.2159,236.3146,95.6393,264.4738,-3.5042e-07,-2.93e-06,0.0,0 STARLINK-3148,1 49736U 21115N   24058.50391455 -.00000293  00000-0 -35042-6 0  9996,2 49736  53.2159 236.3146 0001213  95.6393 264.4738 15.08833252124753,6917.901,95.438,540.605,538.927,0.0
49736.0,STARLINK-3148,PAYLOAD,2024-02-27 21:37:56,15.08842498,0.0001449,53.2155,234.5304,91.3274,268.7884,-6.6947e-05,-1.353e-05,0.0,0 STARLINK-3148,1 49736U 21115N   24058.90135096 -.00001353  00000-0 -66947-4 0  9991,2 49736  53.2155 234.5304 0001449  91.3274 268.7884 15.08842498123702,6917.873,95.437,540.74,538.735,0.0
49736.0,STARLINK-3148,PAYLOAD,2024-02-28 11:56:25,15.08835113,0.0001423,53.2151,231.8543,91.3806,268.7349,6.0575e-05,6.76e-06,0.0,0 STARLINK-3148,1 49736U 21115N   24059.49751231  .00000676  00000-0  60575-4 0  9997,2 49736  53.2151 231.8543 0001423  91.3806 268.7349 15.08835113123797,6917.895,95.438,540.745,538.776,0.0
49736.0,STARLINK-3148,PAYLOAD,2024-02-28 18:17:57,15.08839311,0.0001367,53.2154,230.6646,96.7696,263.3451,4.489e-05,4.27e-06,0.0,0 STARLINK-3148,1 49736U 21115N   24059.76247080  .00000427  00000-0  44890-4 0  9995,2 49736  53.2154 230.6646 0001367  96.7696 263.3451 15.08839311123838,6917.882,95.438,540.693,538.802,0.0
49736.0,STARLINK-3148,PAYLOAD,2024-02-29 03:50:16,15.08841704,0.0001295,53.2155,228.8816,92.7087,267.4053,5.9367e-05,6.57e-06,0.0,0 STARLINK-3148,1 49736U 21115N   24060.15990920  .00000657  00000-0  59367-4 0  9998,2 49736  53.2155 228.8816 0001295  92.7087 267.4053 15.08841704125000,6917.875,95.437,540.636,538.844,0.0
49736.0,STARLINK-3148,PAYLOAD,2024-02-29 14:57:58,15.08835038,0.0001586,53.2172,226.8024,104.2023,255.9146,7.5238e-05,9.09e-06,0.0,0 STARLINK-3148,1 49736U 21115N   24060.62359501  .00000909  00000-0  75238-4 0  9999,2 49736  53.2172 226.8024 0001586 104.2023 255.9146 15.08835038123961,6917.896,95.438,540.858,538.663,0.0
49736.0,STARLINK-3148,PAYLOAD,2024-02-29 19:44:07,15.0883711,0.0001456,53.2172,225.911,92.9113,267.2046,8.5458e-05,1.072e-05,0.0,0 STARLINK-3148,1 49736U 21115N   24060.82231440  .00001072  00000-0  85458-4 0  9999,2 49736  53.2172 225.9110 0001456  92.9113 267.2046 15.08837110125102,6917.889,95.438,540.761,538.747,0.0
49736.0,STARLINK-3148,PAYLOAD,2024-03-01 14:48:45,15.08840297,0.0001504,53.2183,222.343,95.3633,264.753,3.755e-05,3.1e-06,0.0,0 STARLINK-3148,1 49736U 21115N   24061.61719589  .00000310  00000-0  37550-4 0  9996,2 49736  53.2183 222.3430 0001504  95.3633 264.7530 15.08840297124118,6917.879,95.438,540.785,538.704,0.0
49736.0,STARLINK-3148,PAYLOAD,2024-03-01 17:59:31,15.08843163,0.0001667,53.2182,221.7482,98.1502,261.9679,5.9874e-05,6.65e-06,0.0,0 STARLINK-3148,1 49736U 21115N   24061.74967345  .00000665  00000-0  59874-4 0  9991,2 49736  53.2182 221.7482 0001667  98.1502 261.9679 15.08843163124133,6917.871,95.437,540.889,538.583,0.0
49736.0,STARLINK-3148,PAYLOAD,2024-03-02 14:39:32,15.08839172,0.0001581,53.2186,217.8819,85.2789,274.8384,5.9234e-05,6.55e-06,0.0,0 STARLINK-3148,1 49736U 21115N   24062.61079673  .00000655  00000-0  59234-4 0  9995,2 49736  53.2186 217.8819 0001581  85.2789 274.8384 15.08839172124261,6917.883,95.438,540.842,538.654,0.0
49736.0,STARLINK-3148,PAYLOAD,2024-03-02 17:50:18,15.0884539,0.0001748,53.2183,217.286,85.5176,274.6016,3.9585e-05,3.42e-06,0.0,0 STARLINK-3148,1 49736U 21115N   24062.74327355  .00000342  00000-0  39585-4 0  9992,2 49736  53.2183 217.2860 0001748  85.5176 274.6016 15.08845390125390,6917.864,95.437,540.938,538.52,0.0
49736.0,STARLINK-3148,PAYLOAD,2024-03-03 04:58:01,15.08834747,0.0001595,53.2165,215.2063,85.8685,274.249,2.8221e-05,1.61e-06,0.0,0 STARLINK-3148,1 49736U 21115N   24063.20696116  .00000161  00000-0  28221-4 0  9992,2 49736  53.2165 215.2063 0001595  85.8685 274.2490 15.08834747125465,6917.896,95.438,540.865,538.658,0.0
49736.0,STARLINK-3148,PAYLOAD,2024-03-03 14:30:22,15.08816208,0.0001187,53.2172,213.4204,84.8037,275.309,-0.00018405,-3.214e-05,0.0,0 STARLINK-3148,1 49736U 21115N   24063.60442255 -.00003214  00000-0 -18405-3 0  9995,2 49736  53.2172 213.4204 0001187  84.8037 275.3090 15.08816208124411,6917.953,95.439,540.639,538.997,0.0
49736.0,STARLINK-3148,PAYLOAD,2024-03-03 19:16:31,15.08813413,0.000116,53.2181,212.5253,83.0934,277.019,-0.00018715,-3.263e-05,0.0,0 STARLINK-3148,1 49736U 21115N   24063.80314773 -.00003263  00000-0 -18715-3 0  9998,2 49736  53.2181 212.5253 0001160  83.0934 277.0190 15.08813413124441,6917.962,95.439,540.629,539.024,0.0
49736.0,STARLINK-3148,PAYLOAD,2024-03-04 12:45:44,15.08845655,0.0001109,53.2187,209.2567,52.5822,307.5271,0.00010049,1.312e-05,0.0,0 STARLINK-3148,1 49736U 21115N   24064.53175998  .00001312  00000-0  10049-3 0  9996,2 49736  53.2187 209.2567 0001109  52.5822 307.5271 15.08845655125665,6917.863,95.437,540.495,538.961,0.0
49736.0,STARLINK-3148,PAYLOAD,2024-03-04 14:21:07,15.08848546,0.0001183,53.2175,208.9617,54.4179,305.6924,7.7494e-05,9.46e-06,0.0,0 STARLINK-3148,1 49736U 21115N   24064.59799966  .00000946  00000-0  77494-4 0  9999,2 49736  53.2175 208.9617 0001183  54.4179 305.6924 15.08848546124566,6917.854,95.437,540.538,538.901,0.0
49736.0,STARLINK-3148,PAYLOAD,2024-03-04 15:56:29,15.08863454,0.0001961,53.2185,208.6615,43.9163,316.1985,0.00021184,3.087e-05,0.0,0 STARLINK-3148,1 49736U 21115N   24064.66422909  .00003087  00000-0  21184-3 0  9990,2 49736  53.2185 208.6615 0001961  43.9163 316.1985 15.08863454125685,6917.809,95.436,541.03,538.317,0.0
